{
  "type": "FeatureCollection",
  "features": [
    {
      "type": "Feature",
      "properties": {
        "norad_id": 54741,
        "name": "GALAXY 35 (G-35)",
        "group": "intelsat",
        "lat": 0.01041459745448794,
        "lon": 58.065646892781075,
        "alt_km": 35796.49321081633,
        "timestamp": "2025-12-09T04:51:47.176252+00:00",
        "meta_object_name": "GALAXY 35 (G-35)",
        "meta_object_id": "2022-170A",
        "meta_epoch": "2025-12-08T14:52:22.454112",
        "meta_mean_motion": 1.0027105,
        "meta_eccentricity": 0.0002674,
        "meta_inclination": 0.0196,
        "meta_ra_of_asc_node": 75.317,
        "meta_arg_of_pericenter": 188.7561,
        "meta_mean_anomaly": 303.5567,
        "meta_ephemeris_type": 0,
        "meta_classification_type": "U",
        "meta_norad_cat_id": 54741,
        "meta_element_set_no": 999,
        "meta_rev_at_epoch": 1098,
        "meta_bstar": 0,
        "meta_mean_motion_dot": -1.6e-06,
        "meta_mean_motion_ddot": 0,
        "tle_line1": "1 54741U 22170A   25342.61970433 -.00000160  00000+0  00000+0 0  9998",
        "tle_line2": "2 54741   0.0196  75.3170 0002674 188.7561 303.5567  1.00271050 10980"
      },
      "geometry": {
        "type": "Point",
        "coordinates": [
          58.065646892781075,
          0.01041459745448794
        ]
      }
    },
    {
      "type": "Feature",
      "properties": {
        "norad_id": 54742,
        "name": "GALAXY 36 (G-36)",
        "group": "intelsat",
        "lat": 0.023416359337326383,
        "lon": 62.141189573430964,
        "alt_km": 35788.31696688639,
        "timestamp": "2025-12-09T04:51:47.176264+00:00",
        "meta_object_name": "GALAXY 36 (G-36)",
        "meta_object_id": "2022-170B",
        "meta_epoch": "2025-12-08T14:53:37.334400",
        "meta_mean_motion": 1.00270824,
        "meta_eccentricity": 5.91e-05,
        "meta_inclination": 0.0087,
        "meta_ra_of_asc_node": 16.4813,
        "meta_arg_of_pericenter": 265.1369,
        "meta_mean_anomaly": 290.4097,
        "meta_ephemeris_type": 0,
        "meta_classification_type": "U",
        "meta_norad_cat_id": 54742,
        "meta_element_set_no": 999,
        "meta_rev_at_epoch": 1086,
        "meta_bstar": 0,
        "meta_mean_motion_dot": -1.83e-06,
        "meta_mean_motion_ddot": 0,
        "tle_line1": "1 54742U 22170B   25342.62057100 -.00000183  00000+0  00000+0 0  9992",
        "tle_line2": "2 54742   0.0087  16.4813 0000591 265.1369 290.4097  1.00270824 10869"
      },
      "geometry": {
        "type": "Point",
        "coordinates": [
          62.141189573430964,
          0.023416359337326383
        ]
      }
    },
    {
      "type": "Feature",
      "properties": {
        "norad_id": 57493,
        "name": "GALAXY 37 (G-37)",
        "group": "intelsat",
        "lat": 0.023211694174252628,
        "lon": 24.16595356808863,
        "alt_km": 35791.379861239424,
        "timestamp": "2025-12-09T04:51:47.176275+00:00",
        "meta_object_name": "GALAXY 37 (G-37)",
        "meta_object_id": "2023-112A",
        "meta_epoch": "2025-12-08T18:08:04.811136",
        "meta_mean_motion": 1.0027135,
        "meta_eccentricity": 0.0002358,
        "meta_inclination": 0.0108,
        "meta_ra_of_asc_node": 332.89,
        "meta_arg_of_pericenter": 289.8352,
        "meta_mean_anomaly": 320.0548,
        "meta_ephemeris_type": 0,
        "meta_classification_type": "U",
        "meta_norad_cat_id": 57493,
        "meta_element_set_no": 999,
        "meta_rev_at_epoch": 863,
        "meta_bstar": 0,
        "meta_mean_motion_dot": 5e-07,
        "meta_mean_motion_ddot": 0,
        "tle_line1": "1 57493U 23112A   25342.75561124  .00000050  00000+0  00000+0 0  9997",
        "tle_line2": "2 57493   0.0108 332.8900 0002358 289.8352 320.0548  1.00271350  8637"
      },
      "geometry": {
        "type": "Point",
        "coordinates": [
          24.16595356808863,
          0.023211694174252628
        ]
      }
    }
  ]
}